[
  {
    "OBJECT_NAME": "STARLINK-32268",
    "OBJECT_ID": "24138T",
    "EPOCH": "2025-11-10T19:38:04.811136",
    "MEAN_MOTION": 15.30135826,
    "ECCENTRICITY": 0.0002516,
    "INCLINATION": 53.1558,
    "RA_OF_ASC_NODE": 142.0477,
    "ARG_OF_PERICENTER": 92.9461,
    "MEAN_ANOMALY": 267.1828,
    "EPHEMERIS_TYPE": 0,
    "CLASSIFICATION_TYPE": "U",
    "NORAD_CAT_ID": 60372,
    "ELEMENT_SET_NO": 999,
    "REV_AT_EPOCH": 7242,
    "BSTAR": 0.00054548,
    "MEAN_MOTION_DOT": 0.00015799,
    "MEAN_MOTION_DDOT": 0.0,
    "TLE_LINE1": "1 60372U 24138T   25314.81811124  .00015799  00000+0  54548-3 0  9996",
    "TLE_LINE2": "2 60372  53.1558 142.0477 0002516  92.9461 267.1828 15.30135826 72420",
    "COMMENT": "Grouped by shell and plane from TLE"
  },
  {
    "OBJECT_NAME": "STARLINK-32223",
    "OBJECT_ID": "24138U",
    "EPOCH": "2025-11-10T22:17:16.868544",
    "MEAN_MOTION": 15.302021,
    "ECCENTRICITY": 9.92e-05,
    "INCLINATION": 53.16,
    "RA_OF_ASC_NODE": 141.3152,
    "ARG_OF_PERICENTER": 72.7712,
    "MEAN_ANOMALY": 287.3398,
    "EPHEMERIS_TYPE": 0,
    "CLASSIFICATION_TYPE": "U",
    "NORAD_CAT_ID": 60373,
    "ELEMENT_SET_NO": 999,
    "REV_AT_EPOCH": 7234,
    "BSTAR": 8.4315e-05,
    "MEAN_MOTION_DOT": 2.139e-05,
    "MEAN_MOTION_DDOT": 0.0,
    "TLE_LINE1": "1 60373U 24138U   25314.92866746  .00002139  00000+0  84315-4 0  9999",
    "TLE_LINE2": "2 60373  53.1600 141.3152 0000992  72.7712 287.3398 15.30202100 72349",
    "COMMENT": "Grouped by shell and plane from TLE"
  },
  {
    "OBJECT_NAME": "STARLINK-32180",
    "OBJECT_ID": "24138V",
    "EPOCH": "2025-11-10T19:12:12.352608",
    "MEAN_MOTION": 15.30202182,
    "ECCENTRICITY": 0.0001282,
    "INCLINATION": 53.1625,
    "RA_OF_ASC_NODE": 141.9307,
    "ARG_OF_PERICENTER": 86.2624,
    "MEAN_ANOMALY": 273.8523,
    "EPHEMERIS_TYPE": 0,
    "CLASSIFICATION_TYPE": "U",
    "NORAD_CAT_ID": 60374,
    "ELEMENT_SET_NO": 999,
    "REV_AT_EPOCH": 7242,
    "BSTAR": 5.2005999999999996e-05,
    "MEAN_MOTION_DOT": 1.181e-05,
    "MEAN_MOTION_DDOT": 0.0,
    "TLE_LINE1": "1 60374U 24138V   25314.80014297  .00001181  00000+0  52006-4 0  9991",
    "TLE_LINE2": "2 60374  53.1625 141.9307 0001282  86.2624 273.8523 15.30202182 72429",
    "COMMENT": "Grouped by shell and plane from TLE"
  },
  {
    "OBJECT_NAME": "STARLINK-32281",
    "OBJECT_ID": "24138W",
    "EPOCH": "2025-11-10T21:40:50.278080",
    "MEAN_MOTION": 15.3018415,
    "ECCENTRICITY": 0.0001084,
    "INCLINATION": 53.1603,
    "RA_OF_ASC_NODE": 141.1592,
    "ARG_OF_PERICENTER": 119.5509,
    "MEAN_ANOMALY": 240.56,
    "EPHEMERIS_TYPE": 0,
    "CLASSIFICATION_TYPE": "U",
    "NORAD_CAT_ID": 60375,
    "ELEMENT_SET_NO": 999,
    "REV_AT_EPOCH": 7234,
    "BSTAR": 0.0,
    "MEAN_MOTION_DOT": -1.773e-05,
    "MEAN_MOTION_DDOT": 0.0,
    "TLE_LINE1": "1 60375U 24138W   25314.90335970 -.00001773  00000+0 -47794-4 0  9994",
    "TLE_LINE2": "2 60375  53.1603 141.1592 0001084 119.5509 240.5600 15.30184150 72348",
    "COMMENT": "Grouped by shell and plane from TLE"
  },
  {
    "OBJECT_NAME": "STARLINK-32277",
    "OBJECT_ID": "24138X",
    "EPOCH": "2025-11-10T08:22:57.499968",
    "MEAN_MOTION": 15.30203475,
    "ECCENTRICITY": 0.0001536,
    "INCLINATION": 53.1563,
    "RA_OF_ASC_NODE": 144.0913,
    "ARG_OF_PERICENTER": 87.426,
    "MEAN_ANOMALY": 272.6916,
    "EPHEMERIS_TYPE": 0,
    "CLASSIFICATION_TYPE": "U",
    "NORAD_CAT_ID": 60376,
    "ELEMENT_SET_NO": 999,
    "REV_AT_EPOCH": 7235,
    "BSTAR": 6.6036e-05,
    "MEAN_MOTION_DOT": 1.597e-05,
    "MEAN_MOTION_DDOT": 0.0,
    "TLE_LINE1": "1 60376U 24138X   25314.34927662  .00001597  00000+0  66036-4 0  9990",
    "TLE_LINE2": "2 60376  53.1563 144.0913 0001536  87.4260 272.6916 15.30203475 72351",
    "COMMENT": "Grouped by shell and plane from TLE"
  },
  {
    "OBJECT_NAME": "STARLINK-32039",
    "OBJECT_ID": "24150X",
    "EPOCH": "2025-11-11T05:09:55.650816",
    "MEAN_MOTION": 15.30194676,
    "ECCENTRICITY": 0.0001459,
    "INCLINATION": 53.1595,
    "RA_OF_ASC_NODE": 140.0803,
    "ARG_OF_PERICENTER": 91.7658,
    "MEAN_ANOMALY": 268.351,
    "EPHEMERIS_TYPE": 0,
    "CLASSIFICATION_TYPE": "U",
    "NORAD_CAT_ID": 60604,
    "ELEMENT_SET_NO": 999,
    "REV_AT_EPOCH": 6986,
    "BSTAR": 2.7807e-05,
    "MEAN_MOTION_DOT": 4.64e-06,
    "MEAN_MOTION_DDOT": 0.0,
    "TLE_LINE1": "1 60604U 24150X   25315.21522744  .00000464  00000+0  27807-4 0  9992",
    "TLE_LINE2": "2 60604  53.1595 140.0803 0001459  91.7658 268.3510 15.30194676 69863",
    "COMMENT": "Grouped by shell and plane from TLE"
  },
  {
    "OBJECT_NAME": "STARLINK-33566",
    "OBJECT_ID": "24220N",
    "EPOCH": "2025-11-10T21:36:42.068160",
    "MEAN_MOTION": 15.27616592,
    "ECCENTRICITY": 0.000178,
    "INCLINATION": 43.001,
    "RA_OF_ASC_NODE": 141.6938,
    "ARG_OF_PERICENTER": 254.5306,
    "MEAN_ANOMALY": 105.5349,
    "EPHEMERIS_TYPE": 0,
    "CLASSIFICATION_TYPE": "U",
    "NORAD_CAT_ID": 62100,
    "ELEMENT_SET_NO": 999,
    "REV_AT_EPOCH": 5519,
    "BSTAR": 0.0015608,
    "MEAN_MOTION_DOT": 0.00042986,
    "MEAN_MOTION_DDOT": 0.0,
    "TLE_LINE1": "1 62100U 24220N   25314.90048690  .00042986  00000+0  15608-2 0  9990",
    "TLE_LINE2": "2 62100  43.0010 141.6938 0001780 254.5306 105.5349 15.27616592 55193",
    "COMMENT": "Grouped by shell and plane from TLE"
  },
  {
    "OBJECT_NAME": "STARLINK-32883",
    "OBJECT_ID": "25018A",
    "EPOCH": "2025-11-10T21:48:24.956352",
    "MEAN_MOTION": 15.30218236,
    "ECCENTRICITY": 7.6e-05,
    "INCLINATION": 53.1581,
    "RA_OF_ASC_NODE": 141.2435,
    "ARG_OF_PERICENTER": 43.2058,
    "MEAN_ANOMALY": 316.9002,
    "EPHEMERIS_TYPE": 0,
    "CLASSIFICATION_TYPE": "U",
    "NORAD_CAT_ID": 62806,
    "ELEMENT_SET_NO": 999,
    "REV_AT_EPOCH": 4590,
    "BSTAR": 0.0014203,
    "MEAN_MOTION_DOT": 0.00041968,
    "MEAN_MOTION_DDOT": 0.0,
    "TLE_LINE1": "1 62806U 25018A   25314.90862218  .00041968  00000+0  14203-2 0  9998",
    "TLE_LINE2": "2 62806  53.1581 141.2435 0000760  43.2058 316.9002 15.30218236 45902",
    "COMMENT": "Grouped by shell and plane from TLE"
  },
  {
    "OBJECT_NAME": "STARLINK-32886",
    "OBJECT_ID": "25018B",
    "EPOCH": "2025-11-10T21:46:53.499360",
    "MEAN_MOTION": 15.30226554,
    "ECCENTRICITY": 4.3e-05,
    "INCLINATION": 53.1598,
    "RA_OF_ASC_NODE": 141.2331,
    "ARG_OF_PERICENTER": 188.0412,
    "MEAN_ANOMALY": 172.0582,
    "EPHEMERIS_TYPE": 0,
    "CLASSIFICATION_TYPE": "U",
    "NORAD_CAT_ID": 62807,
    "ELEMENT_SET_NO": 999,
    "REV_AT_EPOCH": 4499,
    "BSTAR": 0.001056,
    "MEAN_MOTION_DOT": 0.00031074,
    "MEAN_MOTION_DDOT": 0.0,
    "TLE_LINE1": "1 62807U 25018B   25314.90756365  .00031074  00000+0  10560-2 0  9993",
    "TLE_LINE2": "2 62807  53.1598 141.2331 0000430 188.0412 172.0582 15.30226554 44996",
    "COMMENT": "Grouped by shell and plane from TLE"
  },
  {
    "OBJECT_NAME": "STARLINK-32787",
    "OBJECT_ID": "25018D",
    "EPOCH": "2025-11-10T21:43:52.150944",
    "MEAN_MOTION": 15.30236985,
    "ECCENTRICITY": 0.0001623,
    "INCLINATION": 53.1567,
    "RA_OF_ASC_NODE": 141.2215,
    "ARG_OF_PERICENTER": 94.1509,
    "MEAN_ANOMALY": 265.9677,
    "EPHEMERIS_TYPE": 0,
    "CLASSIFICATION_TYPE": "U",
    "NORAD_CAT_ID": 62809,
    "ELEMENT_SET_NO": 999,
    "REV_AT_EPOCH": 4498,
    "BSTAR": 0.0017867,
    "MEAN_MOTION_DOT": 0.00052998,
    "MEAN_MOTION_DDOT": 0.0,
    "TLE_LINE1": "1 62809U 25018D   25314.90546471  .00052998  00000+0  17867-2 0  9995",
    "TLE_LINE2": "2 62809  53.1567 141.2215 0001623  94.1509 265.9677 15.30236985 44989",
    "COMMENT": "Grouped by shell and plane from TLE"
  },
  {
    "OBJECT_NAME": "STARLINK-32843",
    "OBJECT_ID": "25018J",
    "EPOCH": "2025-11-10T19:06:08.791776",
    "MEAN_MOTION": 15.30221073,
    "ECCENTRICITY": 0.0001123,
    "INCLINATION": 53.1588,
    "RA_OF_ASC_NODE": 141.9585,
    "ARG_OF_PERICENTER": 81.7525,
    "MEAN_ANOMALY": 278.3603,
    "EPHEMERIS_TYPE": 0,
    "CLASSIFICATION_TYPE": "U",
    "NORAD_CAT_ID": 62814,
    "ELEMENT_SET_NO": 999,
    "REV_AT_EPOCH": 4496,
    "BSTAR": 0.0013713,
    "MEAN_MOTION_DOT": 0.00040504,
    "MEAN_MOTION_DDOT": 0.0,
    "TLE_LINE1": "1 62814U 25018J   25314.79593509  .00040504  00000+0  13713-2 0  9998",
    "TLE_LINE2": "2 62814  53.1588 141.9585 0001123  81.7525 278.3603 15.30221073 44967",
    "COMMENT": "Grouped by shell and plane from TLE"
  },
  {
    "OBJECT_NAME": "STARLINK-32852",
    "OBJECT_ID": "25018U",
    "EPOCH": "2025-11-10T22:11:12.575040",
    "MEAN_MOTION": 15.30216285,
    "ECCENTRICITY": 6.16e-05,
    "INCLINATION": 53.1576,
    "RA_OF_ASC_NODE": 141.3349,
    "ARG_OF_PERICENTER": 100.4166,
    "MEAN_ANOMALY": 259.6904,
    "EPHEMERIS_TYPE": 0,
    "CLASSIFICATION_TYPE": "U",
    "NORAD_CAT_ID": 62824,
    "ELEMENT_SET_NO": 999,
    "REV_AT_EPOCH": 4499,
    "BSTAR": 0.0012417,
    "MEAN_MOTION_DOT": 0.00036617,
    "MEAN_MOTION_DDOT": 0.0,
    "TLE_LINE1": "1 62824U 25018U   25314.92445110  .00036617  00000+0  12417-2 0  9998",
    "TLE_LINE2": "2 62824  53.1576 141.3349 0000616 100.4166 259.6904 15.30216285 44991",
    "COMMENT": "Grouped by shell and plane from TLE"
  },
  {
    "OBJECT_NAME": "STARLINK-35237",
    "OBJECT_ID": "25210Z",
    "EPOCH": "2025-11-09T05:45:29.882880",
    "MEAN_MOTION": 15.39631411,
    "ECCENTRICITY": 0.0003082,
    "INCLINATION": 53.1588,
    "RA_OF_ASC_NODE": 146.9833,
    "ARG_OF_PERICENTER": 83.2375,
    "MEAN_ANOMALY": 276.8981,
    "EPHEMERIS_TYPE": 0,
    "CLASSIFICATION_TYPE": "U",
    "NORAD_CAT_ID": 65645,
    "ELEMENT_SET_NO": 999,
    "REV_AT_EPOCH": 928,
    "BSTAR": 0.0011851000000000001,
    "MEAN_MOTION_DOT": 0.00047321,
    "MEAN_MOTION_DDOT": 0.0,
    "TLE_LINE1": "1 65645U 25210Z   25313.23992920  .00047321  00000+0  11851-2 0  9990",
    "TLE_LINE2": "2 65645  53.1588 146.9833 0003082  83.2375 276.8981 15.39631411  9287",
    "COMMENT": "Grouped by shell and plane from TLE"
  }
]